{
    "links": {
        "self": "http://www.neowsapp.com/rest/v1/neo/3838065?api_key=iIulBulltgU6a56xZRHN4H3l9WmuAYTsLGpBGhQ2"
    },
    "id": "3838065",
    "neo_reference_id": "3838065",
    "name": "(2019 BQ4)",
    "designation": "2019 BQ4",
    "nasa_jpl_url": "http://ssd.jpl.nasa.gov/sbdb.cgi?sstr=3838065",
    "absolute_magnitude_h": 20.7,
    "estimated_diameter": {
        "kilometers": {
            "estimated_diameter_min": 0.1925550782,
            "estimated_diameter_max": 0.4305662442
        },
        "meters": {
            "estimated_diameter_min": 192.5550781879,
            "estimated_diameter_max": 430.566244241
        },
        "miles": {
            "estimated_diameter_min": 0.1196481415,
            "estimated_diameter_max": 0.2675413778
        },
        "feet": {
            "estimated_diameter_min": 631.7424027221,
            "estimated_diameter_max": 1412.6189567557
        }
    },
    "is_potentially_hazardous_asteroid": false,
    "close_approach_data": [
        {
            "close_approach_date": "2019-01-31",
            "close_approach_date_full": "2019-Jan-31 14:05",
            "epoch_date_close_approach": 1548943500000,
            "relative_velocity": {
                "kilometers_per_second": "37.6836502155",
                "kilometers_per_hour": "135661.1407759246",
                "miles_per_hour": "84294.5571671293"
            },
            "miss_distance": {
                "astronomical": "0.1107152195",
                "lunar": "43.0682203855",
                "kilometers": "16562761.013782465",
                "miles": "10291622.465089417"
            },
            "orbiting_body": "Earth"
        }
    ],
    "orbital_data": {
        "orbit_id": "3",
        "orbit_determination_date": "2019-02-03 07:04:41",
        "first_observation_date": "2019-01-28",
        "last_observation_date": "2019-02-03",
        "data_arc_in_days": 6,
        "observations_used": 80,
        "orbit_uncertainty": "9",
        "minimum_orbit_intersection": ".0952401",
        "jupiter_tisserand_invariant": "2.698",
        "epoch_osculation": "2458512.5",
        "eccentricity": ".8331885576271921",
        "semi_major_axis": "2.341954698619894",
        "inclination": "50.07660478927101",
        "ascending_node_longitude": "129.5454915426181",
        "orbital_period": "1309.079922212071",
        "perihelion_distance": ".3906648412485591",
        "perihelion_argument": "117.7245001111267",
        "aphelion_distance": "4.29324455599123",
        "perihelion_time": "2458559.318049208897",
        "mean_anomaly": "347.1249284102361",
        "mean_motion": ".2750023080269045",
        "equinox": "J2000",
        "orbit_class": {
            "orbit_class_type": "APO",
            "orbit_class_description": "Near-Earth asteroid orbits which cross the Earth’s orbit similar to that of 1862 Apollo",
            "orbit_class_range": "a (semi-major axis) > 1.0 AU; q (perihelion) < 1.017 AU"
        }
    },
    "is_sentry_object": false
}